STARLINK-1815           
1 46713U 20073AV  26069.00003471  .00010738  00000+0  98094-4 0  9993
2 46713  53.0443 200.7345 0003794 346.0090 244.5885 15.68490192  5532
STARLINK-11167 [DTC]    
1 60061U 24113C   26068.64311208 -.00003098  00000+0 -20736-4 0  9994
2 60061  53.1582 191.4597 0000875  72.6663 287.4450 15.69696055 99858
